OBJECT_NAME,OBJECT_ID,EPOCH,MEAN_MOTION,ECCENTRICITY,INCLINATION,RA_OF_ASC_NODE,ARG_OF_PERICENTER,MEAN_ANOMALY,EPHEMERIS_TYPE,CLASSIFICATION_TYPE,NORAD_CAT_ID,ELEMENT_SET_NO,REV_AT_EPOCH,BSTAR,MEAN_MOTION_DOT,MEAN_MOTION_DDOT
GSAT-7,2013-044B,2026-06-09T03:25:02.582400,1.00270634,.0003023,0.0628,99.9949,188.9311,93.8503,0,U,39234,999,4517,0,-.6E-6,0
AMOS-4,2013-045A,2026-06-09T03:22:47.798400,1.00271443,.0002578,0.0340,91.5768,324.8247,316.8170,0,U,39237,999,4687,0,.24E-6,0
AEHF-3 (USA 246),2013-050A,2026-06-08T21:20:39.636960,1.00270525,.0087787,5.2741,67.2588,188.0722,197.8220,0,U,39256,999,4557,0,.45E-6,0
ASTRA 2E,2013-056A,2026-06-09T03:12:26.290368,1.00274204,.0002702,0.0660,323.6010,123.8507,246.6953,0,U,39285,999,4633,0,.167E-5,0
FM-6,2013-058A,2026-06-08T15:06:37.024416,1.00255605,.0002771,0.0107,82.6412,69.5183,215.1325,0,U,39360,999,4598,0,.3E-7,0
RADUGA-1M 3,2013-062A,2026-06-08T22:30:20.653920,1.00272235,.0001477,5.9359,72.4566,268.2726,289.1612,0,U,39375,999,4602,0,.168E-5,0
SES-8,2013-071A,2026-06-08T20:40:43.466016,1.00271420,.0002893,0.0334,277.4047,166.4550,218.5763,0,U,39460,999,4434,0,-.253E-5,0
INMARSAT 5-F1,2013-073A,2026-06-09T03:22:10.356096,1.00271624,.0000445,0.0185,4.8446,320.8273,45.0189,0,U,39476,999,4549,0,.44E-6,0
TKSAT-1 (TUPAC KATARI),2013-075A,2026-06-09T02:39:23.076864,1.00271768,.0002452,0.0335,139.2482,290.1749,140.7362,0,U,39481,999,4552,0,-.178E-5,0
EXPRESS-AM5,2013-077A,2026-06-08T19:10:54.871680,1.00272967,.000051,0.0130,288.2714,83.6383,313.0502,0,U,39487,999,4627,0,-.263E-5,0
GSAT-14,2014-001A,2026-06-09T03:25:02.582400,1.00269441,.0000981,0.0123,5.4143,278.7642,98.5953,0,U,39498,999,4529,0,0,0
THAICOM 6,2014-002A,2026-06-09T03:26:39.925824,1.00269542,.0004532,0.0843,105.1700,359.0666,283.4451,0,U,39500,999,4537,0,-.104E-5,0
TDRS 12,2014-004A,2026-06-09T04:19:38.531712,1.00269855,.0002844,3.9689,18.9469,198.0452,64.5802,0,U,39504,999,4419,0,-.255E-5,0
ABS-2,2014-006A,2026-06-08T22:17:39.349824,1.00271444,.0004093,0.0316,76.4378,348.1186,242.1014,0,U,39508,999,4519,0,-.7E-6,0
ATHENA-FIDUS,2014-006B,2026-06-09T02:47:38.778720,1.00270941,.0001432,0.0435,101.5043,352.4473,243.2559,0,U,39509,999,4500,0,.171E-5,0
TURKSAT 4A,2014-007A,2026-06-09T01:33:35.058240,1.00270448,.000139,0.0528,294.5370,31.4212,356.8787,0,U,39522,999,4488,0,.163E-5,0
EXPRESS-AT1,2014-010A,2026-06-09T05:04:29.090784,1.00302148,.0003915,0.2358,85.7563,35.5811,273.8141,0,U,39612,999,4473,0,.49E-6,0
EXPRESS-AT2,2014-010B,2026-06-09T03:20:18.036096,1.00263698,.0000576,0.0169,283.0636,42.4439,38.0862,0,U,39613,999,4441,0,.96E-6,0
AMAZONAS 4A,2014-011A,2026-06-09T02:43:07.716864,1.00273014,.0003808,0.0645,200.7792,265.0714,118.4270,0,U,39616,999,4463,0,-.236E-5,0
ASTRA 5B,2014-011B,2026-06-09T03:10:56.434368,1.00270283,.000205,0.0551,320.0235,105.8947,262.8269,0,U,39617,999,4458,0,.154E-5,0
IRNSS-1B,2014-017A,2026-05-19T20:39:38.653920,1.00280229,.00242269,28.9733,240.8911,185.2284,176.5740,0,U,39635,999,4451,0,.103E-5,0
LUCH-5V,2014-023A,2026-06-09T03:31:16.983840,1.00267244,.0002822,5.1126,69.8311,33.3646,301.8218,0,U,39727,999,4427,0,-.252E-5,0
KAZSAT-3,2014-023B,2026-06-09T03:20:55.475808,1.00270816,.0000185,0.0239,45.7811,5.1583,315.3038,0,U,39728,999,4237,0,.77E-6,0
EUTELSAT 3B,2014-030A,2026-06-09T04:02:38.566752,1.00272628,.000396,0.0608,357.0130,81.9670,242.3366,0,U,39773,999,4398,0,.37E-6,0
ASIASAT 8 (AMOS-7),2014-046A,2026-06-09T00:09:00.903744,1.00270968,.0001467,0.0158,313.9409,124.6247,286.4052,0,U,40107,999,10206,0,-.316E-5,0
ASIASAT 6,2014-052A,2026-06-09T01:55:30.772128,1.00268484,.0000706,0.0183,347.8079,114.2122,304.2319,0,U,40141,999,4299,0,0,0
OPTUS 10,2014-054A,2026-06-08T20:58:04.304352,1.00270281,.0001993,0.1251,7.3158,70.9744,289.4797,0,U,40146,999,4294,0,-.131E-5,0
MEASAT-3B,2014-054B,2026-06-09T03:30:24.568416,1.00272364,.0003135,0.0480,47.4843,20.9646,333.1746,0,U,40147,999,4282,0,-.225E-5,0
HIMAWARI-8,2014-060A,2026-06-08T20:10:00.000192,1.00270961,.0000818,0.0136,319.3355,138.5674,242.4936,0,U,40267,999,4267,0,-.259E-5,0
IRNSS-1C,2014-061A,2026-06-08T20:24:34.856352,1.00270647,.0022645,6.4974,89.0865,1.4878,195.8228,0,U,40269,999,4260,0,-.145E-5,0
INTELSAT 30 (IS-30),2014-062A,2026-06-09T01:24:00.862848,1.00268018,.0000916,0.0204,38.2246,354.7145,150.4029,0,U,40271,999,671,0,-.133E-5,0
ARSAT 1,2014-062B,2026-06-09T04:48:36.834048,1.00269480,.0001699,0.0136,3.7378,72.7151,181.4747,0,U,40272,999,4254,0,-.243E-5,0
