GSAT-7                  
1 39234U 13044B   26160.14239100 -.00000060  00000+0  00000+0 0  9993
2 39234   0.0628  99.9949 0003023 188.9311  93.8503  1.00270634 45175
AMOS-4                  
1 39237U 13045A   26160.14083100  .00000024  00000+0  00000+0 0  9993
2 39237   0.0340  91.5768 0002578 324.8247 316.8170  1.00271443 46874
AEHF-3 (USA 246)        
1 39256U 13050A   26159.88934765  .00000045  00000+0  00000+0 0  9994
2 39256   5.2741  67.2588 0087787 188.0722 197.8220  1.00270525 45579
ASTRA 2E                
1 39285U 13056A   26160.13363762  .00000167  00000+0  00000+0 0  9990
2 39285   0.0660 323.6010 0002702 123.8507 246.6953  1.00274204 46334
FM-6                    
1 39360U 13058A   26159.62959519  .00000003  00000+0  00000+0 0  9998
2 39360   0.0107  82.6412 0002771  69.5183 215.1325  1.00255605 45982
RADUGA-1M 3             
1 39375U 13062A   26159.93773905  .00000168  00000+0  00000+0 0  9998
2 39375   5.9359  72.4566 0001477 268.2726 289.1612  1.00272235 46025
SES-8                   
1 39460U 13071A   26159.86161419 -.00000253  00000+0  00000+0 0  9992
2 39460   0.0334 277.4047 0002893 166.4550 218.5763  1.00271420 44348
INMARSAT 5-F1           
1 39476U 13073A   26160.14039764  .00000044  00000+0  00000+0 0  9998
2 39476   0.0185   4.8446 0000445 320.8273  45.0189  1.00271624 45491
TKSAT-1 (TUPAC KATARI)  
1 39481U 13075A   26160.11068376 -.00000178  00000+0  00000+0 0  9993
2 39481   0.0335 139.2482 0002452 290.1749 140.7362  1.00271768 45523
EXPRESS-AM5             
1 39487U 13077A   26159.79924620 -.00000263  00000+0  00000+0 0  9991
2 39487   0.0130 288.2714 0000510  83.6383 313.0502  1.00272967 46273
GSAT-14                 
1 39498U 14001A   26160.14239100  .00000000  00000+0  00000+0 0  9992
2 39498   0.0123   5.4143 0000981 278.7642  98.5953  1.00269441 45298
THAICOM 6               
1 39500U 14002A   26160.14351766 -.00000104  00000+0  00000+0 0  9996
2 39500   0.0843 105.1700 0004532 359.0666 283.4451  1.00269542 45372
TDRS 12                 
1 39504U 14004A   26160.18030708 -.00000255  00000+0  00000+0 0  9993
2 39504   3.9689  18.9469 0002844 198.0452  64.5802  1.00269855 44191
ABS-2                   
1 39508U 14006A   26159.92892766 -.00000070  00000+0  00000+0 0  9994
2 39508   0.0316  76.4378 0004093 348.1186 242.1014  1.00271444 45195
ATHENA-FIDUS            
1 39509U 14006B   26160.11642105  .00000171  00000+0  00000+0 0  9999
2 39509   0.0435 101.5043 0001432 352.4473 243.2559  1.00270941 45005
TURKSAT 4A              
1 39522U 14007A   26160.06498910  .00000163  00000+0  00000+0 0  9993
2 39522   0.0528 294.5370 0001390  31.4212 356.8787  1.00270448 44888
EXPRESS-AT1             
1 39612U 14010A   26160.21144781  .00000049  00000+0  00000+0 0  9991
2 39612   0.2358  85.7563 0003915  35.5811 273.8141  1.00302148 44739
EXPRESS-AT2             
1 39613U 14010B   26160.13909764  .00000096  00000+0  00000+0 0  9995
2 39613   0.0169 283.0636 0000576  42.4439  38.0862  1.00263698 44417
AMAZONAS 4A             
1 39616U 14011A   26160.11328376 -.00000236  00000+0  00000+0 0  9998
2 39616   0.0645 200.7792 0003808 265.0714 118.4270  1.00273014 44631
ASTRA 5B                
1 39617U 14011B   26160.13259762  .00000154  00000+0  00000+0 0  9991
2 39617   0.0551 320.0235 0002050 105.8947 262.8269  1.00270283 44584
IRNSS-1B                
1 39635U 14017A   26139.86086405  .00000103  00000+0  00000+0 0  9999
2 39635  28.9733 240.8911 0024226 185.2284 176.5740  1.00280229 44519
LUCH-5V                 
1 39727U 14023A   26160.14672435 -.00000252  00000+0  00000+0 0  9993
2 39727   5.1126  69.8311 0002822  33.3646 301.8218  1.00267244 44278
KAZSAT-3                
1 39728U 14023B   26160.13953097  .00000077  00000+0  00000+0 0  9993
2 39728   0.0239  45.7811 0000185   5.1583 315.3038  1.00270816 42371
EUTELSAT 3B             
1 39773U 14030A   26160.16850193  .00000037  00000+0  00000+0 0  9993
2 39773   0.0608 357.0130 0003960  81.9670 242.3366  1.00272628 43981
ASIASAT 8 (AMOS-7)      
1 40107U 14046A   26160.00626046 -.00000316  00000+0  00000+0 0  9995
2 40107   0.0158 313.9409 0001467 124.6247 286.4052  1.00270968102060
ASIASAT 6               
1 40141U 14052A   26160.08021727  .00000000  00000+0  00000+0 0  9992
2 40141   0.0183 347.8079 0000706 114.2122 304.2319  1.00268484 42997
OPTUS 10                
1 40146U 14054A   26159.87366093 -.00000131  00000+0  00000+0 0  9998
2 40146   0.1251   7.3158 0001993  70.9744 289.4797  1.00270281 42949
MEASAT-3B               
1 40147U 14054B   26160.14611769 -.00000225  00000+0  00000+0 0  9998
2 40147   0.0480  47.4843 0003135  20.9646 333.1746  1.00272364 42827
HIMAWARI-8              
1 40267U 14060A   26159.84027778 -.00000259  00000+0  00000+0 0  9991
2 40267   0.0136 319.3355 0000818 138.5674 242.4936  1.00270961 42676
IRNSS-1C                
1 40269U 14061A   26159.85040343 -.00000145  00000+0  00000+0 0  9992
2 40269   6.4974  89.0865 0022645   1.4878 195.8228  1.00270647 42600
INTELSAT 30 (IS-30)     
1 40271U 14062A   26160.05834332 -.00000133  00000+0  00000+0 0  9996
2 40271   0.0204  38.2246 0000916 354.7145 150.4029  1.00268018  6713
ARSAT 1                 
1 40272U 14062B   26160.20042632 -.00000243  00000+0  00000+0 0  9990
2 40272   0.0136   3.7378 0001699  72.7151 181.4747  1.00269480 42540
